     2.11           N: GPS NAV DATA                         RINEX VERSION / TYPE
teqc  2018Dec12     gpsops              20220511 01:03:48UTCPGM / RUN BY / DATE
Linux 2.6.32-573.12.1.x86_64|x86_64|gcc -static|Linux 64|=+ COMMENT
CHPI                                    MARKER NAME         COMMENT
41609M003                               MARKER NUMBER       COMMENT
4164613.9484 -4162456.9866 -2445028.7316                    COMMENT
                                                            COMMENT
This data is provided as a public service by NASA/JPL.      COMMENT
No warranty is expressed or implied regarding suitability   COMMENT
for use.  For further information, contact:                 COMMENT
Dave Stowers, NASA/JPL m/s 238-600                          COMMENT
4800 Oak Grove Drive, Pasadena CA 91109 USA                 COMMENT
                                                            END OF HEADER
19 22  5 10  4  0  0.0 1.553189940751D-04 5.002220859751D-12 0.000000000000D+00
    6.000000000000D+01 2.221875000000D+01 3.823373544569D-09-1.948154683365D+00
    1.540407538414D-06 9.215018595569D-03 8.447095751762D-06 5.153702117920D+03
    1.872000000000D+05-5.774199962616D-08 1.916897021861D+00 1.899898052216D-07
    9.776142613980D-01 2.254375000000D+02 2.054581283134D+00-7.739608100029D-09
   -5.214502919263D-11 1.000000000000D+00 2.209000000000D+03 0.000000000000D+00
    2.000000000000D+00 0.000000000000D+00-1.583248376846D-08 6.000000000000D+01
    1.800180000000D+05 4.000000000000D+00
11 22  5 10  4 14 40.0-2.696318551898D-05 5.115907697473D-12 0.000000000000D+00
    1.200000000000D+02 3.262500000000D+01 4.449113894881D-09 2.039626149565D+00
    1.471489667892D-06 3.405018942431D-04 5.975365638733D-06 5.153575769424D+03
    1.880800000000D+05 1.862645149231D-08 2.912327584694D+00 3.725290298462D-08
    9.630691223232D-01 2.622500000000D+02 2.860563904963D+00-8.153196756228D-09
    2.982267080537D-10 1.000000000000D+00 2.209000000000D+03 0.000000000000D+00
    2.000000000000D+00 6.300000000000D+01-8.381903171539D-09 1.200000000000D+02
    1.809180000000D+05 4.000000000000D+00
18 22  5 10  4  0  0.0 1.741759479046D-04-1.000444171950D-11 0.000000000000D+00
    9.000000000000D+01 3.993750000000D+01 4.251605667870D-09 1.133472892324D-01
    2.153217792511D-06 2.287817071192D-03 6.090849637985D-06 5.153607584000D+03
    1.872000000000D+05 4.470348358154D-08 2.877112248485D+00-2.421438694000D-08
    9.717068124034D-01 2.678750000000D+02 3.040819559254D+00-8.106051935314D-09
    3.585863651329D-10 1.000000000000D+00 2.209000000000D+03 0.000000000000D+00
    2.000000000000D+00 0.000000000000D+00-8.381903171539D-09 6.020000000000D+02
    1.812480000000D+05 4.000000000000D+00
18 22  5 10  4 29 36.0 1.741577871144D-04-1.000444171950D-11 0.000000000000D+00
    9.100000000000D+01 4.031250000000D+01 4.222318733666D-09 3.723867201788D-01
    2.156943082809D-06 2.287910319865D-03 6.109476089478D-06 5.153607772827D+03
    1.889760000000D+05 8.195638656616D-08 2.877097900185D+00-1.117587089539D-08
    9.717075453253D-01 2.685625000000D+02 3.040834128456D+00-8.079622262984D-09
    3.557291032593D-10 1.000000000000D+00 2.209000000000D+03 0.000000000000D+00
    2.000000000000D+00 0.000000000000D+00-8.381903171539D-09 6.030000000000D+02
    1.818180000000D+05 4.000000000000D+00
31 22  5 10  4  0  0.0-1.769708469510D-04-1.591615728103D-12 0.000000000000D+00
    8.300000000000D+01 3.375000000000D+01 4.669123059145D-09-1.344962794116D+00
    1.726672053337D-06 1.042870699894D-02 8.547678589821D-06 5.153731050491D+03
    1.872000000000D+05 1.527369022369D-07-2.606750816149D-01-1.676380634308D-07
    9.553347256402D-01 2.120312500000D+02 3.889972772180D-01-7.971403469522D-09
    2.003654888840D-10 1.000000000000D+00 2.209000000000D+03 0.000000000000D+00
    2.000000000000D+00 0.000000000000D+00-1.350417733192D-08 8.300000000000D+01
    1.843560000000D+05 4.000000000000D+00
 5 22  5 10  3 59 44.0-8.129095658660D-05-1.364242052659D-12 0.000000000000D+00
    1.100000000000D+01-4.690625000000D+01 4.809128890950D-09 2.446690703517D+00
   -2.466142177582D-06 5.965643445961D-03 4.706904292107D-06 5.153717309952D+03
    1.871840000000D+05-2.421438694000D-08-2.420408637061D+00-1.266598701477D-07
    9.606075490688D-01 2.900625000000D+02 1.016871722183D+00-8.164982961457D-09
    9.036090675161D-11 1.000000000000D+00 2.209000000000D+03 0.000000000000D+00
    2.000000000000D+00 0.000000000000D+00-1.117587089539D-08 1.100000000000D+01
    1.845960000000D+05 4.000000000000D+00
23 22  5 10  4  0  0.0-2.085277810693D-05-2.501110429876D-12 0.000000000000D+00
    1.270000000000D+02-4.950000000000D+01 4.658765484854D-09-9.597459810210D-01
   -2.536922693253D-06 2.109656925313D-03 4.708766937256D-06 5.153708625793D+03
    1.872000000000D+05 1.862645149231D-09-2.406932225474D+00 5.029141902924D-08
    9.684730290633D-01 2.917500000000D+02 3.001811204160D+00-8.285345117881D-09
    1.021471119801D-10 1.000000000000D+00 2.209000000000D+03 0.000000000000D+00
    2.000000000000D+00 0.000000000000D+00-8.381903171539D-09 8.950000000000D+02
    1.871880000000D+05 4.000000000000D+00
25 22  5 10  6  0  0.0 3.227847628295D-04 4.888534022029D-12 0.000000000000D+00
    5.700000000000D+01 2.112500000000D+01 4.865559812953D-09-7.455213820952D-01
    1.115724444389D-06 1.052145950962D-02 5.695968866348D-06 5.153672353745D+03
    1.944000000000D+05-3.911554813385D-08 7.559247879645D-01 2.160668373108D-07
    9.569924444280D-01 2.664375000000D+02 1.003336049248D+00-8.408921693913D-09
   -3.171560679661D-10 1.000000000000D+00 2.209000000000D+03 0.000000000000D+00
    2.000000000000D+00 0.000000000000D+00 5.587935447693D-09 5.700000000000D+01
    1.872180000000D+05 4.000000000000D+00
12 22  5 10  6  0  0.0-2.131494693458D-04-5.798028723802D-12 0.000000000000D+00
    7.300000000000D+01 1.759375000000D+01 4.549118060456D-09-4.366867198576D-01
    9.238719940186D-07 8.670085924678D-03 6.107613444328D-06 5.153550138474D+03
    1.944000000000D+05-7.823109626770D-08 8.336740094345D-01 9.685754776001D-08
    9.694683341560D-01 2.669375000000D+02 1.284112665407D+00-8.254986710474D-09
   -2.625109346341D-10 1.000000000000D+00 2.209000000000D+03 0.000000000000D+00
    2.000000000000D+00 0.000000000000D+00-1.257285475731D-08 7.300000000000D+01
    1.872180000000D+05 4.000000000000D+00
18 22  5 10  6  0  0.0 1.741033047438D-04-1.000444171950D-11 0.000000000000D+00
    9.200000000000D+01 3.381250000000D+01 4.184460013841D-09 1.163825696572D+00
    1.769512891769D-06 2.287256182171D-03 6.210058927536D-06 5.153606082916D+03
    1.944000000000D+05 2.421438694000D-08 2.877054747027D+00 1.173466444016D-07
    9.717096446128D-01 2.669062500000D+02 3.040560238007D+00-7.987475567561D-09
    2.967980771169D-10 1.000000000000D+00 2.209000000000D+03 0.000000000000D+00
    2.000000000000D+00 0.000000000000D+00-8.381903171539D-09 6.040000000000D+02
    1.872180000000D+05 4.000000000000D+00
 5 22  5 10  5 59 44.0-8.130120113492D-05-1.364242052659D-12 0.000000000000D+00
    1.200000000000D+01-4.071875000000D+01 4.750555022542D-09-2.786398023793D+00
   -2.408400177956D-06 5.964895826764D-03 4.487112164497D-06 5.153718793869D+03
    1.943840000000D+05 1.136213541031D-07-2.420467981796D+00-1.192092895508D-07
    9.606082278628D-01 2.926250000000D+02 1.016930783112D+00-8.217842306118D-09
    1.685784505406D-10 1.000000000000D+00 2.209000000000D+03 0.000000000000D+00
    2.000000000000D+00 0.000000000000D+00-1.117587089539D-08 1.200000000000D+01
    1.872180000000D+05 4.000000000000D+00
29 22  5 10  6  0  0.0-5.120490677655D-04-3.979039320257D-12 0.000000000000D+00
    3.000000000000D+01 1.762500000000D+01 3.818373336290D-09-3.110212731633D+00
    9.275972843170D-07 2.135856193490D-03 8.421018719673D-06 5.153712394714D+03
    1.944000000000D+05 2.980232238770D-08 1.885219197118D+00-2.793967723846D-08
    9.808396797725D-01 2.290625000000D+02 2.252129849197D+00-7.701392222470D-09
   -2.317953694933D-10 1.000000000000D+00 2.209000000000D+03 0.000000000000D+00
    2.000000000000D+00 0.000000000000D+00-1.024454832077D-08 3.000000000000D+01
    1.872180000000D+05 4.000000000000D+00
20 22  5 10  6  0  0.0 5.154381506145D-04-2.273736754432D-13 0.000000000000D+00
    2.700000000000D+01-2.581250000000D+01 5.153428946715D-09 1.871061551395D+00
   -1.540407538414D-06 4.802975687198D-03 3.788620233536D-06 5.153569633484D+03
    1.944000000000D+05 2.793967723846D-08-2.536018528060D+00 8.940696716309D-08
    9.429733487507D-01 2.937187500000D+02-3.121178559284D+00-8.517854802842D-09
    1.442917246152D-10 1.000000000000D+00 2.209000000000D+03 0.000000000000D+00
    2.000000000000D+00 0.000000000000D+00-8.381903171539D-09 2.700000000000D+01
    1.872180000000D+05 4.000000000000D+00
 2 22  5 10  6  0  0.0-6.532734259963D-04 0.000000000000D+00 0.000000000000D+00
    9.000000000000D+01 3.021875000000D+01 4.344109521027D-09 9.919442417964D-01
    1.456588506699D-06 2.045075874776D-02 6.917864084244D-06 5.153660840988D+03
    1.944000000000D+05-2.924352884293D-07 2.779506755076D+00-3.408640623093D-07
    9.660319659204D-01 2.482812500000D+02-1.419621449000D+00-8.348919194568D-09
    2.792973481413D-10 1.000000000000D+00 2.209000000000D+03 0.000000000000D+00
    2.000000000000D+00 0.000000000000D+00-1.769512891769D-08 9.000000000000D+01
    1.872180000000D+05 4.000000000000D+00
24 22  5 10  6  0  0.0 2.436987124383D-04-6.480149750132D-12 0.000000000000D+00
    1.890000000000D+02 3.118750000000D+01 5.324864659129D-09 1.144725364143D+00
    1.823529601097D-06 1.245660125278D-02 9.139999747276D-06 5.153689882278D+03
    1.944000000000D+05-1.508742570877D-07-3.632675427970D-01 1.844018697739D-07
    9.345736432578D-01 1.915625000000D+02 8.142296659681D-01-8.520712064716D-09
    1.500062483624D-11 1.000000000000D+00 2.209000000000D+03 0.000000000000D+00
    2.000000000000D+00 0.000000000000D+00 2.793967723846D-09 1.890000000000D+02
    1.872180000000D+05 4.000000000000D+00
